start=new Date('2023-03-11T00:00:00.000Z').valueOf();
sats=[{"ARG_OF_PERICENTER":"275.7609","REV_AT_EPOCH":"130","COUNTRY_CODE":"US","ECCENTRICITY":"0.00014990","TIME_SYSTEM":"UTC","SITE":"AFETR","MEAN_MOTION_DDOT":"0.0000000000000","CENTER_NAME":"EARTH","RCS_SIZE":"LARGE","EPOCH":"2023-03-10T22:00:00.999936","MEAN_ANOMALY":"4.0844","REF_FRAME":"TEME","PERIOD":"95.836","GP_ID":"227819432","PERIAPSIS":"557.966","NORAD_CAT_ID":"54855","TLE_LINE1":"1 54855U 22177AM  23069.91667824 -.00071385  00000-0 -53197-2 0  9992","FILE":"3856975","ELEMENT_SET_NO":"999","TLE_LINE2":"2 54855  43.0009 309.1510 0001499 275.7609   4.0844 15.02560498  1307","OBJECT_ID":"2022-177AM","MEAN_ELEMENT_THEORY":"SGP4","DECAY_DATE":null,"MEAN_MOTION":"15.02560498","CLASSIFICATION_TYPE":"U","INCLINATION":"43.0009","RA_OF_ASC_NODE":"309.1510","SEMIMAJOR_AXIS":"6937.141","EPHEMERIS_TYPE":"0","APOAPSIS":"560.046","LAUNCH_DATE":"2022-12-28","OBJECT_TYPE":"PAYLOAD","BSTAR":"-0.00531970000000","MEAN_MOTION_DOT":"-0.00071385","OBJECT_NAME":"STARLINK-5416"},{"DECAY_DATE":null,"MEAN_MOTION":"15.02513343","MEAN_ELEMENT_THEORY":"SGP4","CLASSIFICATION_TYPE":"U","SEMIMAJOR_AXIS":"6937.286","RA_OF_ASC_NODE":"308.9059","INCLINATION":"43.0001","APOAPSIS":"560.463","EPHEMERIS_TYPE":"0","NORAD_CAT_ID":"54856","PERIAPSIS":"557.839","TLE_LINE2":"2 54856  43.0001 308.9059 0001891 261.9677 119.9508 15.02513343  1303","TLE_LINE1":"1 54856U 22177AN  23069.91667824  .00023867  00000-0  17769-2 0  9998","ELEMENT_SET_NO":"999","FILE":"3856975","OBJECT_ID":"2022-177AN","OBJECT_NAME":"STARLINK-5086","LAUNCH_DATE":"2022-12-28","OBJECT_TYPE":"PAYLOAD","BSTAR":"0.00177690000000","MEAN_MOTION_DOT":"0.00023867","SITE":"AFETR","MEAN_MOTION_DDOT":"0.0000000000000","CENTER_NAME":"EARTH","ARG_OF_PERICENTER":"261.9677","REV_AT_EPOCH":"130","COUNTRY_CODE":"US","ECCENTRICITY":"0.00018910","TIME_SYSTEM":"UTC","EPOCH":"2023-03-10T22:00:00.999936","MEAN_ANOMALY":"119.9508","PERIOD":"95.839","REF_FRAME":"TEME","GP_ID":"227820182","RCS_SIZE":"LARGE"},{"LAUNCH_DATE":"2022-12-28","OBJECT_TYPE":"PAYLOAD","BSTAR":"-0.00645620000000","MEAN_MOTION_DOT":"-0.00086460","OBJECT_NAME":"STARLINK-5078","PERIAPSIS":"557.869","NORAD_CAT_ID":"54857","ELEMENT_SET_NO":"999","TLE_LINE1":"1 54857U 22177AP  23069.91667824 -.00086460  00000-0 -64562-2 0  9992","FILE":"3856975","TLE_LINE2":"2 54857  43.0007 309.2240 0001537 258.2356 351.5578 15.02583495  1302","OBJECT_ID":"2022-177AP","MEAN_ELEMENT_THEORY":"SGP4","DECAY_DATE":null,"MEAN_MOTION":"15.02583495","CLASSIFICATION_TYPE":"U","INCLINATION":"43.0007","RA_OF_ASC_NODE":"309.2240","SEMIMAJOR_AXIS":"6937.070","EPHEMERIS_TYPE":"0","APOAPSIS":"560.002","RCS_SIZE":"LARGE","EPOCH":"2023-03-10T22:00:00.999936","MEAN_ANOMALY":"351.5578","REF_FRAME":"TEME","PERIOD":"95.835","GP_ID":"227818930","ARG_OF_PERICENTER":"258.2356","REV_AT_EPOCH":"130","COUNTRY_CODE":"US","ECCENTRICITY":"0.00015370","TIME_SYSTEM":"UTC","SITE":"AFETR","MEAN_MOTION_DDOT":"0.0000000000000","CENTER_NAME":"EARTH"},{"FILE":"3856975","TLE_LINE1":"1 54858U 22177AQ  23069.91667824 -.00064776  00000-0 -48225-2 0  9997","ELEMENT_SET_NO":"999","TLE_LINE2":"2 54858  43.0008 309.0501 0001897 270.1241  51.8033 15.02549893  1307","PERIAPSIS":"557.723","NORAD_CAT_ID":"54858","OBJECT_ID":"2022-177AQ","CLASSIFICATION_TYPE":"U","MEAN_ELEMENT_THEORY":"SGP4","MEAN_MOTION":"15.02549893","DECAY_DATE":null,"EPHEMERIS_TYPE":"0","APOAPSIS":"560.355","INCLINATION":"43.0008","SEMIMAJOR_AXIS":"6937.174","RA_OF_ASC_NODE":"309.0501","OBJECT_TYPE":"PAYLOAD","LAUNCH_DATE":"2022-12-28","MEAN_MOTION_DOT":"-0.00064776","BSTAR":"-0.00482250000000","OBJECT_NAME":"STARLINK-5407","COUNTRY_CODE":"US","REV_AT_EPOCH":"130","ARG_OF_PERICENTER":"270.1241","TIME_SYSTEM":"UTC","ECCENTRICITY":"0.00018970","MEAN_MOTION_DDOT":"0.0000000000000","SITE":"AFETR","CENTER_NAME":"EARTH","RCS_SIZE":"LARGE","MEAN_ANOMALY":"51.8033","EPOCH":"2023-03-10T22:00:00.999936","GP_ID":"227819180","REF_FRAME":"TEME","PERIOD":"95.837"},{"TIME_SYSTEM":"UTC","ECCENTRICITY":"0.00011910","REV_AT_EPOCH":"1239","COUNTRY_CODE":"US","ARG_OF_PERICENTER":"286.1314","CENTER_NAME":"EARTH","MEAN_MOTION_DDOT":"0.0000000000000","SITE":"AFETR","RCS_SIZE":"LARGE","GP_ID":"227819932","PERIOD":"95.839","REF_FRAME":"TEME","MEAN_ANOMALY":"73.9397","EPOCH":"2023-03-10T17:11:48.169536","OBJECT_ID":"2022-177AR","TLE_LINE2":"2 54859  43.0001 310.0336 0001191 286.1314  73.9397 15.02516185 12391","TLE_LINE1":"1 54859U 22177AR  23069.71652974 -.00001478  00000-0 -94420-4 0  9996","ELEMENT_SET_NO":"999","FILE":"3856975","NORAD_CAT_ID":"54859","PERIAPSIS":"558.316","APOAPSIS":"559.969","EPHEMERIS_TYPE":"0","RA_OF_ASC_NODE":"310.0336","SEMIMAJOR_AXIS":"6937.278","INCLINATION":"43.0001","CLASSIFICATION_TYPE":"U","DECAY_DATE":null,"MEAN_MOTION":"15.02516185","MEAN_ELEMENT_THEORY":"SGP4","MEAN_MOTION_DOT":"-0.00001478","BSTAR":"-0.00009442000000","OBJECT_TYPE":"PAYLOAD","LAUNCH_DATE":"2022-12-28","OBJECT_NAME":"STARLINK-5409"},{"MEAN_MOTION_DDOT":"0.0000000000000","SITE":"AFETR","CENTER_NAME":"EARTH","COUNTRY_CODE":"US","REV_AT_EPOCH":"130","ARG_OF_PERICENTER":"267.1452","TIME_SYSTEM":"UTC","ECCENTRICITY":"0.00015490","MEAN_ANOMALY":"126.9008","EPOCH":"2023-03-10T22:00:00.999936","GP_ID":"227819683","REF_FRAME":"TEME","PERIOD":"95.837","RCS_SIZE":"LARGE","CLASSIFICATION_TYPE":"U","MEAN_ELEMENT_THEORY":"SGP4","DECAY_DATE":null,"MEAN_MOTION":"15.02556096","EPHEMERIS_TYPE":"0","APOAPSIS":"560.094","INCLINATION":"42.9998","SEMIMAJOR_AXIS":"6937.155","RA_OF_ASC_NODE":"308.8766","ELEMENT_SET_NO":"999","TLE_LINE1":"1 54860U 22177AS  23069.91667824 -.00073266  00000-0 -54624-2 0  9994","FILE":"3856975","TLE_LINE2":"2 54860  42.9998 308.8766 0001549 267.1452 126.9008 15.02556096  1309","PERIAPSIS":"557.945","NORAD_CAT_ID":"54860","OBJECT_ID":"2022-177AS","OBJECT_NAME":"STARLINK-5406","OBJECT_TYPE":"PAYLOAD","LAUNCH_DATE":"2022-12-28","MEAN_MOTION_DOT":"-0.00073266","BSTAR":"-0.00546240000000"},{"OBJECT_ID":"2022-177AT","NORAD_CAT_ID":"54861","PERIAPSIS":"558.058","TLE_LINE2":"2 54861  43.0010 309.0792 0001621 282.2358  27.5655 15.02503316  1304","ELEMENT_SET_NO":"999","TLE_LINE1":"1 54861U 22177AT  23069.91667824  .00038699  00000-0  28665-2 0  9990","FILE":"3856975","RA_OF_ASC_NODE":"309.0792","SEMIMAJOR_AXIS":"6937.317","INCLINATION":"43.0010","APOAPSIS":"560.307","EPHEMERIS_TYPE":"0","DECAY_DATE":null,"MEAN_MOTION":"15.02503316","MEAN_ELEMENT_THEORY":"SGP4","CLASSIFICATION_TYPE":"U","BSTAR":"0.00286650000000","MEAN_MOTION_DOT":"0.00038699","LAUNCH_DATE":"2022-12-28","OBJECT_TYPE":"PAYLOAD","OBJECT_NAME":"STARLINK-5400","ECCENTRICITY":"0.00016210","TIME_SYSTEM":"UTC","ARG_OF_PERICENTER":"282.2358","COUNTRY_CODE":"US","REV_AT_EPOCH":"130","CENTER_NAME":"EARTH","SITE":"AFETR","MEAN_MOTION_DDOT":"0.0000000000000","RCS_SIZE":"LARGE","PERIOD":"95.840","REF_FRAME":"TEME","GP_ID":"227818431","EPOCH":"2023-03-10T22:00:00.999936","MEAN_ANOMALY":"27.5655"},{"COUNTRY_CODE":"US","REV_AT_EPOCH":"130","ARG_OF_PERICENTER":"272.4325","TIME_SYSTEM":"UTC","ECCENTRICITY":"0.00015370","MEAN_MOTION_DDOT":"0.0000000000000","SITE":"AFETR","CENTER_NAME":"EARTH","RCS_SIZE":"LARGE","MEAN_ANOMALY":"265.2092","EPOCH":"2023-03-10T22:00:00.999936","GP_ID":"227818681","PERIOD":"95.836","REF_FRAME":"TEME","TLE_LINE2":"2 54862  42.9994 309.4081 0001537 272.4325 265.2092 15.02566948  1306","TLE_LINE1":"1 54862U 22177AU  23069.91667824 -.00074652  00000-0 -55655-2 0  9991","ELEMENT_SET_NO":"999","FILE":"3856975","NORAD_CAT_ID":"54862","PERIAPSIS":"557.920","OBJECT_ID":"2022-177AU","CLASSIFICATION_TYPE":"U","DECAY_DATE":null,"MEAN_MOTION":"15.02566948","MEAN_ELEMENT_THEORY":"SGP4","APOAPSIS":"560.053","EPHEMERIS_TYPE":"0","RA_OF_ASC_NODE":"309.4081","SEMIMAJOR_AXIS":"6937.121","INCLINATION":"42.9994","OBJECT_TYPE":"PAYLOAD","LAUNCH_DATE":"2022-12-28","MEAN_MOTION_DOT":"-0.00074652","BSTAR":"-0.00556550000000","OBJECT_NAME":"STARLINK-5403"},{"OBJECT_NAME":"STARLINK-5405","OBJECT_TYPE":"PAYLOAD","LAUNCH_DATE":"2022-12-28","MEAN_MOTION_DOT":"-0.00032681","BSTAR":"-0.00241530000000","CLASSIFICATION_TYPE":"U","DECAY_DATE":null,"MEAN_MOTION":"15.02538004","MEAN_ELEMENT_THEORY":"SGP4","APOAPSIS":"560.001","EPHEMERIS_TYPE":"0","RA_OF_ASC_NODE":"308.9776","SEMIMAJOR_AXIS":"6937.210","INCLINATION":"43.0002","TLE_LINE2":"2 54863  43.0002 308.9776 0001335 284.1906  67.7796 15.02538004  1303","TLE_LINE1":"1 54863U 22177AV  23069.91667824 -.00032681  00000-0 -24153-2 0  9997","FILE":"3856975","ELEMENT_SET_NO":"999","NORAD_CAT_ID":"54863","PERIAPSIS":"558.149","OBJECT_ID":"2022-177AV","MEAN_ANOMALY":"67.7796","EPOCH":"2023-03-10T22:00:00.999936","GP_ID":"227819433","PERIOD":"95.838","REF_FRAME":"TEME","RCS_SIZE":"LARGE","MEAN_MOTION_DDOT":"0.0000000000000","SITE":"AFETR","CENTER_NAME":"EARTH","COUNTRY_CODE":"US","REV_AT_EPOCH":"130","ARG_OF_PERICENTER":"284.1906","TIME_SYSTEM":"UTC","ECCENTRICITY":"0.00013350"},{"NORAD_CAT_ID":"54864","PERIAPSIS":"558.668","TLE_LINE2":"2 54864  42.9996 308.8049 0000829 265.9178 158.2265 15.02483467  1300","ELEMENT_SET_NO":"999","TLE_LINE1":"1 54864U 22177AW  23069.91667824  .00018646  00000-0  13936-2 0  9998","FILE":"3856975","OBJECT_ID":"2022-177AW","DECAY_DATE":null,"MEAN_MOTION":"15.02483467","MEAN_ELEMENT_THEORY":"SGP4","CLASSIFICATION_TYPE":"U","SEMIMAJOR_AXIS":"6937.378","RA_OF_ASC_NODE":"308.8049","INCLINATION":"42.9996","APOAPSIS":"559.818","EPHEMERIS_TYPE":"0","LAUNCH_DATE":"2022-12-28","OBJECT_TYPE":"PAYLOAD","BSTAR":"0.00139360000000","MEAN_MOTION_DOT":"0.00018646","OBJECT_NAME":"STARLINK-5359","ARG_OF_PERICENTER":"265.9178","COUNTRY_CODE":"US","REV_AT_EPOCH":"130","ECCENTRICITY":"0.00008290","TIME_SYSTEM":"UTC","SITE":"AFETR","MEAN_MOTION_DDOT":"0.0000000000000","CENTER_NAME":"EARTH","RCS_SIZE":"LARGE","EPOCH":"2023-03-10T22:00:00.999936","MEAN_ANOMALY":"158.2265","PERIOD":"95.841","REF_FRAME":"TEME","GP_ID":"227820183"}];
